NORAD_CAT_ID,OBJECT_NAME,OBJECT_TYPE,EPOCH,MEAN_MOTION,ECCENTRICITY,INCLINATION,RA_OF_ASC_NODE,ARG_OF_PERICENTER,MEAN_ANOMALY,BSTAR,MEAN_MOTION_DOT,MEAN_MOTION_DDOT,TLE_LINE0,TLE_LINE1,TLE_LINE2,SEMIMAJOR_AXIS,PERIOD,APOGEE,PERIGEE,DECAYED
53600.0,STARLINK-4677,PAYLOAD,2023-03-19 12:26:55,15.0885682,0.0001154,53.2137,79.8679,83.3673,276.745,0.0014022,0.00022109,0.0,0 STARLINK-4677,1 53600U 22104N   23078.51869755  .00022109  00000-0  14022-2 0  9994,2 53600  53.2137  79.8679 0001154  83.3673 276.7450 15.08856820 31642,6917.829,95.436,540.492,538.896,0.0
53600.0,STARLINK-4677,PAYLOAD,2023-03-19 17:13:05,15.0883931,0.0001071,53.2138,78.9755,93.2898,266.8217,0.0004748,7.277e-05,0.0,0 STARLINK-4677,1 53600U 22104N   23078.71742111  .00007277  00000-0  47480-3 0  9996,2 53600  53.2138  78.9755 0001071  93.2898 266.8217 15.08839310 31393,6917.882,95.438,540.488,539.007,0.0
53600.0,STARLINK-4677,PAYLOAD,2023-03-20 09:06:56,15.0885179,0.000114,53.2143,76.0014,91.7229,268.3893,0.001485,0.00023432,0.0,0 STARLINK-4677,1 53600U 22104N   23079.37982056  .00023432  00000-0  14850-2 0  9998,2 53600  53.2143  76.0014 0001140  91.7229 268.3893 15.08851790 31779,6917.844,95.437,540.498,538.921,0.0
53600.0,STARLINK-4677,PAYLOAD,2023-03-20 17:03:52,15.08841338,0.0001393,53.2147,74.516,85.1211,274.994,0.00059832,9.247e-05,0.0,0 STARLINK-4677,1 53600U 22104N   23079.71102300  .00009247  00000-0  59832-3 0  9990,2 53600  53.2147  74.5160 0001393  85.1211 274.9940 15.08841338 31544,6917.876,95.437,540.705,538.778,0.0
53600.0,STARLINK-4677,PAYLOAD,2023-03-21 10:33:06,15.08853119,0.0001145,53.2153,71.2425,98.4094,261.7027,0.00046658,7.148e-05,0.0,0 STARLINK-4677,1 53600U 22104N   23080.43965783  .00007148  00000-0  46658-3 0  9993,2 53600  53.2153  71.2425 0001145  98.4094 261.7027 15.08853119 31933,6917.84,95.437,540.497,538.913,0.0
53600.0,STARLINK-4677,PAYLOAD,2023-03-22 05:37:44,15.08849805,0.000125,53.2151,67.6742,110.7734,249.3392,0.00046697,7.154e-05,0.0,0 STARLINK-4677,1 53600U 22104N   23081.23454073  .00007154  00000-0  46697-3 0  9997,2 53600  53.2151  67.6742 0001250 110.7734 249.3392 15.08849805 31774,6917.85,95.437,540.58,538.851,0.0
53600.0,STARLINK-4677,PAYLOAD,2023-03-22 08:48:30,15.08854617,0.0001378,53.215,67.0783,111.8495,248.2644,0.00070878,0.00011015,0.0,0 STARLINK-4677,1 53600U 22104N   23081.36701940  .00011015  00000-0  70878-3 0  9998,2 53600  53.2150  67.0783 0001378 111.8495 248.2644 15.08854617 32078,6917.836,95.437,540.654,538.747,0.0
53600.0,STARLINK-4677,PAYLOAD,2023-03-23 03:53:08,15.08842551,0.0001421,53.216,63.51,116.2555,243.8583,0.00072966,0.00011344,0.0,0 STARLINK-4677,1 53600U 22104N   23082.16190354  .00011344  00000-0  72966-3 0  9993,2 53600  53.2160  63.5100 0001421 116.2555 243.8583 15.08842551 31917,6917.873,95.437,540.721,538.755,0.0
53600.0,STARLINK-4677,PAYLOAD,2023-03-23 05:28:31,15.08841147,0.0001559,53.2168,63.2122,114.5798,245.5356,0.00047312,7.25e-05,0.0,0 STARLINK-4677,1 53600U 22104N   23082.22814364  .00007250  00000-0  47312-3 0  9992,2 53600  53.2168  63.2122 0001559 114.5798 245.5356 15.08841147 32208,6917.877,95.437,540.82,538.663,0.0
53600.0,STARLINK-4677,PAYLOAD,2023-03-24 03:43:55,15.0886238,0.0001565,53.2164,59.0508,108.0687,252.0476,0.0010697,0.00016788,0.0,0 STARLINK-4677,1 53600U 22104N   23083.15550476  .00016788  00000-0  10697-2 0  9997,2 53600  53.2164  59.0508 0001565 108.0687 252.0476 15.08862380 32069,6917.812,95.436,540.76,538.594,0.0
53600.0,STARLINK-4677,PAYLOAD,2023-03-24 10:05:27,15.08873679,0.0001839,53.2163,57.8573,127.7548,232.3611,0.0013533,0.00021335,0.0,0 STARLINK-4677,1 53600U 22104N   23083.42045620  .00021335  00000-0  13533-2 0  9993,2 53600  53.2163  57.8573 0001839 127.7548 232.3611 15.08873679 32384,6917.777,95.435,540.915,538.37,0.0
53600.0,STARLINK-4677,PAYLOAD,2023-03-25 03:34:42,15.08837467,0.0001431,53.2164,54.5887,126.2715,233.841,-0.00010347,-1.934e-05,0.0,0 STARLINK-4677,1 53600U 22104N   23084.14910087 -.00001934  00000-0 -10347-3 0  9997,2 53600  53.2164  54.5887 0001431 126.2715 233.8410 15.08837467 32215,6917.888,95.438,540.743,538.763,0.0
53600.0,STARLINK-4677,PAYLOAD,2023-03-25 08:20:51,15.0885054,0.0001047,53.2174,53.6992,103.2955,256.8154,0.0004583,7.016e-05,0.0,0 STARLINK-4677,1 53600U 22104N   23084.34781906  .00007016  00000-0  45830-3 0  9995,2 53600  53.2174  53.6992 0001047 103.2955 256.8154 15.08850540 32247,6917.848,95.437,540.437,538.989,0.0
53600.0,STARLINK-4677,PAYLOAD,2023-03-26 05:00:53,15.08829177,9.91e-05,53.2169,49.8307,69.8326,290.2772,0.00090702,0.00014172,0.0,0 STARLINK-4677,1 53600U 22104N   23085.20895054  .00014172  00000-0  90702-3 0  9990,2 53600  53.2169  49.8307 0000991  69.8326 290.2772 15.08829177 32378,6917.913,95.438,540.464,539.093,0.0
53600.0,STARLINK-4677,PAYLOAD,2023-03-26 09:47:02,15.08842793,8.15e-05,53.2167,48.9385,106.2519,253.8563,0.0011487,0.00018042,0.0,0 STARLINK-4677,1 53600U 22104N   23085.40766787  .00018042  00000-0  11487-2 0  9994,2 53600  53.2167  48.9385 0000815 106.2519 253.8563 15.08842793 32403,6917.872,95.437,540.301,539.173,0.0
53600.0,STARLINK-4677,PAYLOAD,2023-03-27 04:51:40,15.08845154,9.58e-05,53.2166,45.3728,80.7218,279.3882,0.00060246,9.315e-05,0.0,0 STARLINK-4677,1 53600U 22104N   23086.20254846  .00009315  00000-0  60246-3 0  9992,2 53600  53.2166  45.3728 0000958  80.7218 279.3882 15.08845154 32528,6917.865,95.437,540.392,539.067,0.0
53600.0,STARLINK-4677,PAYLOAD,2023-03-27 06:27:03,15.08853147,9e-05,53.2166,45.0755,92.8955,267.214,0.00086188,0.0001346,0.0,0 STARLINK-4677,1 53600U 22104N   23086.26878623  .00013460  00000-0  86188-3 0  9992,2 53600  53.2166  45.0755 0000900  92.8955 267.2140 15.08853147 32810,6917.84,95.437,540.328,539.083,0.0
53600.0,STARLINK-4677,PAYLOAD,2023-03-27 20:45:31,15.088445,7.85e-05,53.2168,42.3972,107.537,252.5708,0.00053739,8.276e-05,0.0,0 STARLINK-4677,1 53600U 22104N   23086.86494809  .00008276  00000-0  53739-3 0  9993,2 53600  53.2168  42.3972 0000785 107.5370 252.5708 15.08844500 32628,6917.867,95.437,540.275,539.189,0.0
53600.0,STARLINK-4677,PAYLOAD,2023-03-28 06:17:50,15.08862828,0.0001041,53.2167,40.6142,89.7811,270.33,0.0011924,0.00018752,0.0,0 STARLINK-4677,1 53600U 22104N   23087.26238493  .00018752  00000-0  11924-2 0  9992,2 53600  53.2167  40.6142 0001041  89.7811 270.3300 15.08862828 32689,6917.811,95.436,540.396,538.955,0.0
53600.0,STARLINK-4677,PAYLOAD,2023-03-29 02:57:50,15.08859453,9.7e-05,53.2168,36.7492,102.0232,258.0869,0.0010589,0.00016614,0.0,0 STARLINK-4677,1 53600U 22104N   23088.12350286  .00016614  00000-0  10589-2 0  9994,2 53600  53.2168  36.7492 0000970 102.0232 258.0869 15.08859453 32818,6917.821,95.436,540.357,539.015,0.0
53600.0,STARLINK-4677,PAYLOAD,2023-03-30 05:59:24,15.08850741,8.77e-05,53.2182,31.6959,77.9941,282.1149,0.0011299,0.00017745,0.0,0 STARLINK-4677,1 53600U 22104N   23089.24958565  .00017745  00000-0  11299-2 0  9997,2 53600  53.2182  31.6959 0000877  77.9941 282.1149 15.08850741 32987,6917.848,95.437,540.319,539.106,0.0
53600.0,STARLINK-4677,PAYLOAD,2023-03-31 02:39:25,15.0887031,0.0001221,53.2179,27.8304,76.7979,283.3149,0.0022518,0.00035761,0.0,0 STARLINK-4677,1 53600U 22104N   23090.11071220  .00035761  00000-0  22518-2 0  9993,2 53600  53.2179  27.8304 0001221  76.7979 283.3149 15.08870310 33119,6917.788,95.436,540.497,538.808,0.0
53600.0,STARLINK-4677,PAYLOAD,2023-03-31 20:08:40,15.08850629,0.0001785,53.2184,24.5598,82.5745,277.545,0.0011687,0.00018366,0.0,0 STARLINK-4677,1 53600U 22104N   23090.83935464  .00018366  00000-0  11687-2 0  9998,2 53600  53.2184  24.5598 0001785  82.5745 277.5450 15.08850629 33228,6917.848,95.437,540.948,538.478,0.0
53600.0,STARLINK-4677,PAYLOAD,2023-04-01 05:40:58,15.08863607,0.0001211,53.2176,22.774,102.7478,257.365,0.0021533,0.0003417,0.0,0 STARLINK-4677,1 53600U 22104N   23091.23678948  .00034170  00000-0  21533-2 0  9996,2 53600  53.2176  22.7740 0001211 102.7478 257.3650 15.08863607 33565,6917.808,95.436,540.511,538.835,0.0
53600.0,STARLINK-4677,PAYLOAD,2023-04-02 05:31:46,15.08859583,0.0001242,53.2176,18.3147,91.5583,268.5551,0.0020326,0.00032226,0.0,0 STARLINK-4677,1 53600U 22104N   23092.23039635  .00032226  00000-0  20326-2 0  9990,2 53600  53.2176  18.3147 0001242  91.5583 268.5551 15.08859583 33431,6917.821,95.436,540.545,538.826,0.0
53600.0,STARLINK-4677,PAYLOAD,2023-04-02 21:25:37,15.08847219,0.0001402,53.2185,15.3375,113.6784,246.4355,0.00033883,5.11e-05,0.0,0 STARLINK-4677,1 53600U 22104N   23092.89279757  .00005110  00000-0  33883-3 0  9998,2 53600  53.2185  15.3375 0001402 113.6784 246.4355 15.08847219 33810,6917.858,95.437,540.693,538.753,0.0
53600.0,STARLINK-4677,PAYLOAD,2023-04-03 03:47:10,15.08863469,0.0001331,53.217,14.1513,82.7332,277.3811,0.0016277,0.00025728,0.0,0 STARLINK-4677,1 53600U 22104N   23093.15775732  .00025728  00000-0  16277-2 0  9996,2 53600  53.2170  14.1513 0001331  82.7332 277.3811 15.08863469 33579,6917.809,95.436,540.594,538.753,0.0
53600.0,STARLINK-4677,PAYLOAD,2023-04-04 03:37:56,15.08872601,0.0001344,53.217,9.6906,92.0734,268.0412,0.0017381,0.00027507,0.0,0 STARLINK-4677,1 53600U 22104N   23094.15135166  .00027507  00000-0  17381-2 0  9992,2 53600  53.2170   9.6906 0001344  92.0734 268.0412 15.08872601 33727,6917.781,95.435,540.575,538.716,0.0
53600.0,STARLINK-4677,PAYLOAD,2023-04-05 03:28:44,15.08849661,0.0001352,53.2168,5.2304,121.2105,238.902,0.0013746,0.00021662,0.0,0 STARLINK-4677,1 53600U 22104N   23095.14495536  .00021662  00000-0  13746-2 0  9999,2 53600  53.2168   5.2304 0001352 121.2105 238.9020 15.08849661 33871,6917.851,95.437,540.651,538.781,0.0
53600.0,STARLINK-4677,PAYLOAD,2023-04-05 20:57:59,15.08841738,0.0001593,53.2173,1.96,119.5028,240.6123,0.0013724,0.00021622,0.0,0 STARLINK-4677,1 53600U 22104N   23095.87359994  .00021622  00000-0  13724-2 0  9998,2 53600  53.2173   1.9600 0001593 119.5028 240.6123 15.08841738 34265,6917.875,95.437,540.842,538.638,0.0
